{
"type": "FeatureCollection",
"name": "palm_building",
"crs": { "type": "name", "properties": { "name": "urn:ogc:def:crs:OGC:1.3:CRS84" } },
"features": [
{ "type": "Feature", "properties": { "id": 1, "Toa": "4", "Can": "2PN ĐẶC BIỆT" }, "geometry": { "type": "MultiPolygon", "coordinates": [ [ [ [ 2677.394008520290299, -1287.311436221481927 ], [ 2671.65374581497872, -1284.769319880558442 ], [ 2668.640107894690118, -1289.289776760991117 ], [ 2649.697240967162543, -1281.540422108820621 ], [ 2660.654576382135019, -1263.73475205949012 ], [ 2685.860896010624401, -1274.006327308099571 ], [ 2677.394008520290299, -1287.311436221481927 ] ] ] ] } },
{ "type": "Feature", "properties": { "id": 1, "Toa": "4", "Can": "2PN" }, "geometry": { "type": "MultiPolygon", "coordinates": [ [ [ [ 2616.47557830382766, -1245.73181034257982 ], [ 2606.645270677326607, -1263.458594587089692 ], [ 2595.236498550520082, -1258.722877855207798 ], [ 2597.389097065011811, -1254.417680826224114 ], [ 2591.575045249308914, -1251.80729021509228 ], [ 2599.756955430952985, -1238.91897152188335 ], [ 2616.47557830382766, -1245.73181034257982 ] ] ] ] } },
{ "type": "Feature", "properties": { "id": 1, "Toa": "4", "Can": "2PN" }, "geometry": { "type": "MultiPolygon", "coordinates": [ [ [ [ 2649.697240967162543, -1281.540422108820621 ], [ 2633.337492257024678, -1274.867366713896217 ], [ 2635.490090771516407, -1270.346909833463314 ], [ 2629.032295228041221, -1267.33327191317494 ], [ 2635.70263097567431, -1253.56683430635735 ], [ 2660.654576382135019, -1263.73475205949012 ], [ 2649.697240967162543, -1281.540422108820621 ] ] ] ] } },
{ "type": "Feature", "properties": { "id": 1, "Toa": "4", "Can": "3PN" }, "geometry": { "type": "MultiPolygon", "coordinates": [ [ [ [ 2610.304688151962637, -1274.436847010997781 ], [ 2626.233917159202065, -1280.894642554473194 ], [ 2623.6507989418119, -1285.199839583456651 ], [ 2632.906972554126241, -1288.85925705809268 ], [ 2627.742226953253976, -1298.237347754414031 ], [ 2602.014816377033185, -1287.907888645258254 ], [ 2610.304688151962637, -1274.436847010997781 ] ] ] ] } },
{ "type": "Feature", "properties": { "id": 1, "Toa": "4", "Can": "3PN ĐẶC BIỆT" }, "geometry": { "type": "MultiPolygon", "coordinates": [ [ [ [ 2583.996715225755452, -1263.744836623875926 ], [ 2610.304688151962637, -1274.436847010997781 ], [ 2602.014816377033185, -1287.907888645258254 ], [ 2575.432592217195634, -1277.235225079837164 ], [ 2583.996715225755452, -1263.744836623875926 ] ] ] ] } },
{ "type": "Feature", "properties": { "id": 1, "Toa": "4", "Can": "2PN ĐẶC BIỆT" }, "geometry": { "type": "MultiPolygon", "coordinates": [ [ [ [ 2639.148587476842295, -1302.816958837450784 ], [ 2647.114122749772378, -1288.213477503745253 ], [ 2670.480317112566809, -1298.17580843361884 ], [ 2661.751792648316496, -1311.892061163154949 ], [ 2639.148587476842295, -1302.816958837450784 ] ] ] ] } },
{ "type": "Feature", "properties": { "id": 1, "Toa": "4", "Can": "HÀNH LANG, THANG MÁY" }, "geometry": { "type": "MultiPolygon", "coordinates": [ [ [ [ 2670.480317112566809, -1298.17580843361884 ], [ 2647.114122749772378, -1288.213477503745253 ], [ 2639.148587476842295, -1302.816958837450784 ], [ 2627.742226953253976, -1298.237347754414031 ], [ 2632.906972554126241, -1288.85925705809268 ], [ 2623.6507989418119, -1285.199839583456651 ], [ 2626.233917159202065, -1280.894642554473194 ], [ 2610.304688151962637, -1274.436847010997781 ], [ 2583.996715225755452, -1263.744836623875926 ], [ 2591.575045249308914, -1251.80729021509228 ], [ 2597.389097065011811, -1254.417680826224114 ], [ 2595.236498550520082, -1258.722877855207798 ], [ 2606.645270677326607, -1263.458594587089692 ], [ 2616.47557830382766, -1245.73181034257982 ], [ 2635.70263097567431, -1253.56683430635735 ], [ 2629.032295228041221, -1267.33327191317494 ], [ 2635.490090771516407, -1270.346909833463314 ], [ 2633.337492257024678, -1274.867366713896217 ], [ 2649.697240967162543, -1281.540422108820621 ], [ 2668.640107894690118, -1289.289776760991117 ], [ 2671.65374581497872, -1284.769319880558442 ], [ 2677.394008520290299, -1287.311436221481927 ], [ 2670.480317112566809, -1298.17580843361884 ] ] ] ] } }
]
}
