{
"type": "FeatureCollection",
"name": "palm_zoning",
"crs": { "type": "name", "properties": { "name": "urn:ogc:def:crs:OGC:1.3:CRS84" } },
"features": [
{ "type": "Feature", "properties": { "id": 1, "Ten_Khu": "PALM RIVER" }, "geometry": { "type": "MultiPolygon", "coordinates": [ [ [ [ 2347.407951598959244, -1036.073465859982207 ], [ 2364.178910976660063, -1044.07778738115735 ], [ 2384.761452031111276, -1050.176318063957751 ], [ 2406.106309420912567, -1053.225583405357838 ], [ 2435.074330164214189, -1053.987899740707917 ], [ 2481.575626620566709, -1054.750216076057995 ], [ 2515.879861711318881, -1055.512532411407847 ], [ 2543.323249783920346, -1059.32411408815824 ], [ 2570.004321521171732, -1066.184961106308492 ], [ 2592.873811581673181, -1079.144338807259373 ], [ 2613.456352636124393, -1098.202247191010429 ], [ 2634.801210025925684, -1123.358686257561885 ], [ 2649.285220397576268, -1145.465859982713027 ], [ 2669.105445116677402, -1169.859982713914405 ], [ 2686.6387208297283, -1195.016421780465862 ], [ 2701.885047536729417, -1213.312013828866839 ], [ 2716.36905790838, -1232.369922212617894 ], [ 2732.377700950731196, -1250.66551426101887 ], [ 2749.910976663782094, -1272.010371650820161 ], [ 2767.444252376832992, -1294.87986171132161 ], [ 2765.919619706132835, -1313.175453759722586 ], [ 2750.292134831457133, -1320.417458945548788 ], [ 2730.09075194468096, -1327.27830596369904 ], [ 2704.171996542779652, -1333.376836646499441 ], [ 2680.159031979253086, -1336.426101987899756 ], [ 2656.146067415726975, -1337.188418323249607 ], [ 2632.895419187550488, -1336.426101987899756 ], [ 2599.353500432148849, -1332.614520311149363 ], [ 2570.004321521172187, -1329.184096802074237 ], [ 2549.42178046672052, -1325.753673292998656 ], [ 2258.216940363004142, -1205.307692307691923 ], [ 2347.407951598959244, -1036.073465859982207 ] ] ] ] } },
{ "type": "Feature", "properties": { "id": 2, "Ten_Khu": "PALM EDEN" }, "geometry": { "type": "MultiPolygon", "coordinates": [ [ [ [ 2765.919247481359889, -1313.175081534949413 ], [ 2766.974132488381656, -1295.533302300532569 ], [ 2694.720837328485686, -1205.27028371799247 ], [ 2669.099861745080034, -1169.84044091332521 ], [ 2652.939350995293353, -1149.9748047719022 ], [ 2797.660342784403838, -1021.588524926396644 ], [ 2818.24288383885505, -1020.730919049127806 ], [ 2846.54387778872524, -1021.588524926396644 ], [ 2883.420930511284496, -1021.588524926396644 ], [ 2926.301224374724825, -1024.161342558202932 ], [ 2988.906453415346732, -1024.161342558202932 ], [ 2986.333635783540558, -1045.601489489923097 ], [ 2978.615182888121126, -1079.048118703406089 ], [ 2964.035882974551896, -1121.070806689577239 ], [ 2943.453341920100684, -1159.663071166673262 ], [ 2925.443618497455645, -1190.536882748349854 ], [ 2903.145865688466984, -1217.122664943682594 ], [ 2879.132901124940872, -1241.993235384477885 ], [ 2848.259089543264054, -1266.006199948004223 ], [ 2813.097248575243157, -1289.161558634261837 ], [ 2765.919247481359889, -1313.175081534949413 ] ] ] ] } },
{ "type": "Feature", "properties": { "id": 3, "Ten_Khu": "PALM HEIGHT" }, "geometry": { "type": "MultiPolygon", "coordinates": [ [ [ [ 2258.21954593641567, -1205.303783947573038 ], [ 2101.468621704837005, -1129.084061605308307 ], [ 2060.303539595934581, -1100.354264716803527 ], [ 2035.004166216504927, -1075.483694276008237 ], [ 2009.490391367757184, -1052.113934120433441 ], [ 2195.376465265769184, -834.282041294158944 ], [ 2239.114365006477783, -855.722188225878995 ], [ 2262.26972369273517, -885.309590991652499 ], [ 2276.849023606304854, -910.180161432447676 ], [ 2294.429944090315075, -944.484396523199621 ], [ 2311.153258697056572, -976.64461692077964 ], [ 2324.66055126404035, -1005.803216747918668 ], [ 2347.407966138987831, -1036.07352692810764 ], [ 2258.21954593641567, -1205.303783947573038 ] ] ] ] } }
]
}
